LEMUR-2-ANDIS           
1 42838U 17042P   26068.55941107  .00023598  00000+0  79875-3 0  9998
2 42838  97.3659 249.7950 0009101   4.3248 355.8070 15.30557934473198
STARLINK-31447          
1 59302U 24056G   26068.48980564 -.00000466  00000+0 -74071-5 0  9993
2 59302  43.0009 231.8462 0000947 274.9567  85.1176 15.27571238111128
